KUIPER-00133            
1 65764U 25217C   25365.23093044  .00003867  00000+0  53555-3 0  9990
2 65764  51.9040 355.8233 0011781  91.8936 268.3376 14.79949727 14607
KUIPER-00139            
1 65765U 25217D   25365.17938054  .00016480  00000+0  12609-2 0  9992
2 65765  51.8866 347.5306 0008890  83.4981 276.7003 15.01980735 14718
KUIPER-00142            
1 65766U 25217E   25365.50002315 -.00994133  00000+0 -90664-1 0  9990
2 65766  51.9145 337.9766 0003033 102.9819 239.8812 14.97550644  5213
KUIPER-00145            
1 65767U 25217F   25365.50002315 -.00944812  00000+0 -10454+0 0  9997
2 65767  51.8978 340.0489 0007681  76.6501 178.9400 14.89790110  4560
KUIPER-00147            
1 65768U 25217G   25365.50002315 -.00026794  00000+0 -28303-2 0  9993
2 65768  51.8969 342.5067 0011386  87.4247  19.7786 14.88590839  3859
KUIPER-00148            
1 65769U 25217H   25365.41595775  .00028390  00000+0  17913-2 0  9998
2 65769  51.8789 340.9917 0010344 107.8926 252.3177 15.08842779 14824
KUIPER-00150            
1 65770U 25217J   25365.16604936  .00003974  00000+0  54989-3 0  9998
2 65770  51.9041 353.6091 0000347 121.4647 238.6349 14.79942826 14623
KUIPER-00151            
1 65771U 25217K   25365.50002315 -.00014628  00000+0 -18448-2 0  9999
2 65771  51.9016 344.6440 0000901 168.2570 122.1048 14.81027770  5734
